     3.04           N: GNSS NAV DATA    M: MIXED NAV DATA   RINEX VERSION / TYPE
Alloy 5.45          Receiver Operator   20230217 000000 UTC PGM / RUN BY / DATE
GPSA    .2328D-07   .0000D+00  -.1192D-06   .1192D-06       IONOSPHERIC CORR
GPSB    .1352D+06  -.8192D+05   .6554D+05  -.4588D+06       IONOSPHERIC CORR
GAL     .1832D+03  -.2031D+00  -.8545D-03   .0000D+00       IONOSPHERIC CORR
BDSA    .3632D-07   .2608D-06  -.2086D-05   .2921D-05       IONOSPHERIC CORR
BDSB    .1372D+06  -.3113D+06   .1180D+07  -.2621D+06       IONOSPHERIC CORR
GPUT  -.2793967724D-08 -.115463195D-13 589824 2249          TIME SYSTEM CORR
GAUT   .0000000000D+00  .000000000D+00 345600 2249          TIME SYSTEM CORR
BDUT  -.2793967724D-08  .000000000D+00     14  893          TIME SYSTEM CORR
GAGP   .6722984836D-08  .182076576D-13 432000 2249          TIME SYSTEM CORR
    18    18  2185     7                                    LEAP SECONDS
                                                            END OF HEADER
G28 2023 02 17 18 29 36  .162804499269D-04  .147792889038D-10  .000000000000D+00
      .222000000000D+03  .255312500000D+02  .501378027264D-08  .275628506496D+01
      .116042792797D-05  .102038762998D-02  .627152621746D-05  .515361454964D+04
      .498576000000D+06  .670552253723D-07  .950881744910D+00 -.614672899246D-07
      .961520614759D+00  .259250000000D+03  .168355648263D+01 -.815605401810D-08
      .353228999120D-09  .100000000000D+01  .224900000000D+04  .000000000000D+00
      .200000000000D+01  .000000000000D+00 -.139698386192D-08  .222000000000D+03
      .491418000000D+06  .400000000000D+01
R20 2023 02 17 16 45 00 -.878348946571D-04  .000000000000D+00  .491400000000D+06
      .124282744141D+05 -.231113338470D+01  .000000000000D+00  .000000000000D+00
      .204199414062D+04  .197860908508D+01  .372529029846D-08  .200000000000D+01
      .221832915039D+05  .111754417419D+01 -.931322574615D-09  .000000000000D+00
R10 2023 02 17 16 45 00 -.906484201550D-04  .000000000000D+00  .491400000000D+06
      .228855869141D+05  .153511428833D+01 -.186264514923D-08  .000000000000D+00
      .285269531250D+03  .258357048035D+00  .186264514923D-08 -.700000000000D+01
      .113304482422D+05 -.309555625916D+01  .000000000000D+00  .000000000000D+00
R11 2023 02 17 16 45 00 -.595301389694D-05 -.454747350886D-11  .491400000000D+06
      .871395361328D+04  .297024631500D+01  .000000000000D+00  .000000000000D+00
     -.869812695313D+04  .729298591614D+00  .186264514923D-08  .000000000000D+00
      .223426176758D+05 -.875784873962D+00 -.186264514923D-08  .000000000000D+00
R21 2023 02 17 16 45 00 -.374049879611D-03 -.272848410532D-11  .491400000000D+06
      .197695844727D+05 -.981054306030D+00 -.186264514923D-08  .000000000000D+00
     -.137931674805D+05  .634979248047D+00  .000000000000D+00  .400000000000D+01
      .837283251953D+04  .336175727844D+01 -.186264514923D-08  .000000000000D+00
R09 2023 02 17 16 45 00  .104646198452D-03  .181898940355D-11  .491400000000D+06
      .238386821289D+05 -.517822265625D+00 -.186264514923D-08  .000000000000D+00
      .799085693359D+04 -.228521347046D+00  .931322574615D-09 -.200000000000D+01
     -.405466992187D+04 -.349097824097D+01  .186264514923D-08  .000000000000D+00
R19 2023 02 17 16 45 00 -.222234986722D-03 -.909494701773D-12  .491400000000D+06
     -.492616748047D+04 -.186154651642D+01  .931322574615D-09  .000000000000D+00
      .159853833008D+05  .187988471985D+01  .465661287308D-08  .300000000000D+01
      .192619941406D+05 -.203599071503D+01  .000000000000D+00  .000000000000D+00
R03 2023 02 17 16 45 00  .726943835616D-04  .909494701773D-12  .491400000000D+06
     -.986362158203D+04 -.768782615662D+00  .931322574615D-09  .000000000000D+00
      .521212695313D+04 -.303866004944D+01  .372529029846D-08  .500000000000D+01
      .229913564453D+05  .354348182678D+00 -.931322574615D-09  .000000000000D+00
E30 2023 02 17 16 20 00 -.125024898443D-02 -.307380787490D-10  .000000000000D+00
      .500000000000D+02 -.212500000000D+01  .326977905657D-08  .146474882615D+01
     -.137835741043D-06  .584246357903D-03  .805407762527D-05  .544061833191D+04
      .490800000000D+06  .204890966415D-07  .198077134456D+01  .614672899246D-07
      .967683205444D+00  .172312500000D+03  .828852213890D+00 -.542951187525D-08
     -.725387358152D-09  .516000000000D+03  .224900000000D+04
      .312000000000D+01  .000000000000D+00  .232830643654D-08  .232830643654D-08
      .491464000000D+06
E27 2023 02 17 16 20 00 -.514610263053D-03 -.919442300074D-11  .000000000000D+00
      .500000000000D+02  .107187500000D+02  .329870883304D-08  .114409180797D+01
      .603497028351D-06  .337392208166D-03  .824406743050D-05  .544060457611D+04
      .490800000000D+06  .502914190292D-07  .197705202310D+01  .465661287308D-07
      .969792418787D+00  .170062500000D+03  .338937120240D+00 -.541058251534D-08
     -.712529679721D-09  .516000000000D+03  .224900000000D+04
      .312000000000D+01  .000000000000D+00  .232830643654D-08  .256113708019D-08
      .491464000000D+06
E34 2023 02 17 16 20 00 -.305881258100D-04 -.196109795070D-11  .000000000000D+00
      .500000000000D+02  .113375000000D+03  .259903683174D-08 -.130173876701D+01
      .527687370777D-05  .385361490771D-04 -.273808836937D-06  .544061255074D+04
      .490800000000D+06  .000000000000D+00 -.222141232192D+01  .223517417908D-07
      .998937031177D+00  .363687500000D+03  .229445133046D+01 -.573702468439D-08
      .212151694112D-09  .516000000000D+03  .224900000000D+04
      .312000000000D+01  .000000000000D+00  .512227416039D-08  .605359673500D-08
      .491464000000D+06
E36 2023 02 17 16 20 00 -.138457398862D-04 -.564170932194D-11  .000000000000D+00
      .500000000000D+02  .119656250000D+03  .264796744133D-08  .240004276931D+01
      .551529228687D-05  .314216129482D-03 -.452622771263D-06  .544060950851D+04
      .490800000000D+06  .298023223877D-07 -.221962055595D+01  .000000000000D+00
      .999079318978D+00  .369718750000D+03 -.621332366016D+00 -.573773899986D-08
      .204651381694D-09  .516000000000D+03  .224900000000D+04
      .312000000000D+01  .000000000000D+00  .605359673500D-08  .698491930962D-08
      .491464000000D+06
E34 2023 02 17 16 20 00 -.305881258100D-04 -.196109795070D-11  .000000000000D+00
      .500000000000D+02  .113375000000D+03  .259903683174D-08 -.130173876701D+01
      .527687370777D-05  .385361490771D-04 -.273808836937D-06  .544061255074D+04
      .490800000000D+06  .000000000000D+00 -.222141232192D+01  .223517417908D-07
      .998937031177D+00  .363687500000D+03  .229445133046D+01 -.573702468439D-08
      .212151694112D-09  .513000000000D+03  .224900000000D+04
      .312000000000D+01  .000000000000D+00  .512227416039D-08  .605359673500D-08
      .491485000000D+06
E27 2023 02 17 16 20 00 -.514610263053D-03 -.919442300074D-11  .000000000000D+00
      .500000000000D+02  .107187500000D+02  .329870883304D-08  .114409180797D+01
      .603497028351D-06  .337392208166D-03  .824406743050D-05  .544060457611D+04
      .490800000000D+06  .502914190292D-07  .197705202310D+01  .465661287308D-07
      .969792418787D+00  .170062500000D+03  .338937120240D+00 -.541058251534D-08
     -.712529679721D-09  .513000000000D+03  .224900000000D+04
      .312000000000D+01  .000000000000D+00  .232830643654D-08  .256113708019D-08
      .491485000000D+06
E36 2023 02 17 16 20 00 -.138457398862D-04 -.564170932194D-11  .000000000000D+00
      .500000000000D+02  .119656250000D+03  .264796744133D-08  .240004276931D+01
      .551529228687D-05  .314216129482D-03 -.452622771263D-06  .544060950851D+04
      .490800000000D+06  .298023223877D-07 -.221962055595D+01  .000000000000D+00
      .999079318978D+00  .369718750000D+03 -.621332366016D+00 -.573773899986D-08
      .204651381694D-09  .513000000000D+03  .224900000000D+04
      .312000000000D+01  .000000000000D+00  .605359673500D-08  .698491930962D-08
      .491485000000D+06
E30 2023 02 17 16 20 00 -.125024898443D-02 -.307380787490D-10  .000000000000D+00
      .500000000000D+02 -.212500000000D+01  .326977905657D-08  .146474882615D+01
     -.137835741043D-06  .584246357903D-03  .805407762527D-05  .544061833191D+04
      .490800000000D+06  .204890966415D-07  .198077134456D+01  .614672899246D-07
      .967683205444D+00  .172312500000D+03  .828852213890D+00 -.542951187525D-08
     -.725387358152D-09  .513000000000D+03  .224900000000D+04
      .312000000000D+01  .000000000000D+00  .232830643654D-08  .232830643654D-08
      .491485000000D+06
E36 2023 02 17 16 20 00 -.138457398862D-04 -.564170932194D-11  .000000000000D+00
      .500000000000D+02  .119656250000D+03  .264796744133D-08  .240004276931D+01
      .551529228687D-05  .314216129482D-03 -.452622771263D-06  .544060950851D+04
      .490800000000D+06  .298023223877D-07 -.221962055595D+01  .000000000000D+00
      .999079318978D+00  .369718750000D+03 -.621332366016D+00 -.573773899986D-08
      .204651381694D-09  .258000000000D+03  .224900000000D+04
      .312000000000D+01  .000000000000D+00  .605359673500D-08  .000000000000D+00
      .491520000000D+06
E30 2023 02 17 16 20 00 -.125024811132D-02 -.307522896037D-10  .000000000000D+00
      .500000000000D+02 -.212500000000D+01  .326977905657D-08  .146474882615D+01
     -.137835741043D-06  .584246357903D-03  .805407762527D-05  .544061833191D+04
      .490800000000D+06  .204890966415D-07  .198077134456D+01  .614672899246D-07
      .967683205444D+00  .172312500000D+03  .828852213890D+00 -.542951187525D-08
     -.725387358152D-09  .258000000000D+03  .224900000000D+04
      .312000000000D+01  .000000000000D+00  .232830643654D-08  .000000000000D+00
      .491520000000D+06
